{"spkid": "50837629", "covariance": {"epoch": "2458374.5", "labels": ["e", "q", "tp", "node", "peri", "i"], "data": [["2.784658137327867E-14", "-4.817158666251626E-14", "1.722861315478964E-12", "-3.870236871384346E-12", "1.015551036490701E-11", "1.265220855495234E-12"], ["-4.817158666251626E-14", "8.346161893441377E-14", "-2.978397481195261E-12", "6.521193757411299E-12", "-1.740730471606146E-11", "-2.128343318706905E-12"], ["1.722861315478964E-12", "-2.978397481195261E-12", "2.944534878300481E-10", "4.945849480169798E-10", "8.419019323183162E-11", "5.208538210153299E-12"], ["-3.870236871384346E-12", "6.521193757411299E-12", "4.945849480169798E-10", "1.117582070353513E-8", "-1.12118223000811E-8", "-2.27044328007389E-9"], ["1.015551036490701E-11", "-1.740730471606146E-11", "8.419019323183162E-11", "-1.12118223000811E-8", "1.287041345673005E-8", "2.458839249016757E-9"], ["1.265220855495234E-12", "-2.128343318706905E-12", "5.208538210153299E-12", "-2.27044328007389E-9", "2.458839249016757E-9", "5.789786332266122E-10"]], "elements": [{"label": "e", "units": null, "value": ".5402780838604548", "title": "eccentricity", "sigma": 1.66872949794982e-07, "name": "e"}, {"name": "q", "sigma": 2.88897246325426e-07, "units": "au", "title": "perihelion distance", "value": ".7843189989635456", "label": "q"}, {"label": "tp", "units": "TDB", "title": "time of perihelion passage", "value": "2458539.735627482432", "name": "tp", "sigma": 1.71596470776659e-05}, {"label": "node", "units": "deg", "title": "longitude of the ascending node", "value": "306.162597122984", "sigma": 0.000105715754282581, "name": "om"}, {"label": "peri", "units": "deg", "title": "argument of perihelion", "value": "231.2849396513877", "name": "w", "sigma": 0.000113447844654405}, {"units": "deg", "value": "8.285759444675872", "title": "inclination", "sigma": 2.40619748405365e-05, "name": "i", "label": "i"}]}, "elements": [{"label": "e", "name": "e", "sigma": "1.6796E-7", "value": ".540290963200256", "title": "eccentricity", "units": null}, {"sigma": "3.2642E-8", "name": "a", "units": "au", "value": "1.70519381904438", "title": "semi-major axis", "label": "a"}, {"label": "q", "value": ".7838930081097687", "title": "perihelion distance", "units": "au", "sigma": "2.9097E-7", "name": "q"}, {"label": "i", "sigma": "2.4113E-5", "name": "i", "title": "inclination; angle with respect to x-y ecliptic plane", "value": "8.286544720634833", "units": "deg"}, {"label": "node", "sigma": ".00010576", "name": "om", "value": "305.9316261418719", "title": "longitude of the ascending node", "units": "deg"}, {"sigma": ".00011342", "name": "w", "units": "deg", "value": "231.5920839194059", "title": "argument of perihelion", "label": "peri"}, {"sigma": "2.7655E-5", "name": "ma", "units": "deg", "title": "mean anomaly", "value": "97.69654374474709", "label": "M"}, {"label": "tp", "name": "tp", "sigma": "5.6436E-5", "title": "time of perihelion passage", "value": "2460979.783017309599", "units": "TDB"}, {"value": "813.31550454994", "title": "sidereal orbital period", "units": "d", "sigma": "2.3354E-5", "name": "per", "label": "period"}, {"value": ".4426326536086525", "title": "mean motion", "units": "deg/d", "name": "n", "sigma": "1.271E-8", "label": "n"}, {"label": "Q", "name": "ad", "sigma": "5.0279E-8", "units": "au", "title": "aphelion distance", "value": "2.626494629978991"}], "epoch": "2461200.5"}